{"type":"FeatureCollection","features":[{"type":"Feature","id":1,"geometry":{"type":"Polygon","coordinates":[[[-80.268462319554004,43.594259235290139],[-80.268475637860917,43.594251625556829],[-80.268914836091014,43.594000660412881],[-80.269323185617068,43.593761260322722],[-80.269652891386826,43.59346249010364],[-80.270270390599677,43.592949017146232],[-80.270683420382539,43.592684171184089],[-80.27101773810233,43.59238877862996],[-80.27132093131182,43.592024244757994],[-80.27169706610249,43.591676763152265],[-80.271769077741183,43.591629261507791],[-80.271937228847065,43.591518337441919],[-80.272177151073237,43.591466005239425],[-80.272375268009242,43.591459016763245],[-80.27256307559071,43.591398950668207],[-80.272719688736757,43.591300901821242],[-80.272959913690926,43.591112154677461],[-80.273116697894608,43.590938318702541],[-80.273263406212692,43.590605311026771],[-80.273441676081731,43.590143566498298],[-80.273536367587809,43.589757354818211],[-80.273620553468547,43.589409003325628],[-80.273694451013498,43.588992419830142],[-80.273726419908115,43.58868179965377],[-80.273789716075868,43.58834854131684],[-80.27386304413794,43.588189616976706],[-80.273974737205236,43.588028097165335],[-80.274030396250936,43.587947608012414],[-80.274107105427788,43.587861318711077],[-80.274142673550031,43.5878213042769],[-80.274144006278419,43.587819769415482],[-80.274150749005727,43.587824181035586],[-80.274198748037335,43.587768880760144],[-80.274223262434546,43.587719520057377],[-80.274272374213936,43.587647685344997],[-80.274324427993662,43.587533268053328],[-80.274376647257256,43.587468153073438],[-80.274373510800316,43.587452473193522],[-80.274431723844074,43.587333562263005],[-80.274582193055068,43.587138226289596],[-80.274769479321847,43.586884531100722],[-80.274895431618461,43.586738559135206],[-80.274923032282828,43.586691429247757],[-80.275104192215935,43.586451201726817],[-80.275226957482715,43.586271619305968],[-80.27528821937382,43.586141490971954],[-80.275355557487018,43.585984456316417],[-80.275371518159787,43.585915584942725],[-80.275376861041522,43.585892528648017],[-80.275382691375427,43.585784944651301],[-80.275363182258872,43.585718835088159],[-80.275360884958232,43.585711049102272],[-80.27530515612284,43.585630511396154],[-80.275243251031327,43.58554999655852],[-80.275187445813657,43.585447049719953],[-80.27518066586461,43.585245381699679],[-80.275254101528546,43.585065923158666],[-80.275280992708815,43.585006814028858],[-80.275321467325114,43.584917849586787],[-80.275324193084032,43.584903753833729],[-80.275351814827786,43.584760908153747],[-80.275369998160585,43.584657779311215],[-80.275406578522521,43.58452323468385],[-80.275516983881801,43.58433471707545],[-80.275516598700776,43.584209225804614],[-80.275547029085871,43.584079174830286],[-80.275546587529078,43.583935756918812],[-80.27552749664153,43.583743083464128],[-80.275570151559663,43.583577145508492],[-80.275569737456962,43.583442686867215],[-80.275513766041414,43.583285960983424],[-80.275340558689123,43.583098154440535],[-80.275136537498625,43.582914899993604],[-80.274988157682046,43.582780811398003],[-80.274885036092343,43.58272770018435],[-80.2748776370927,43.582725173535287],[-80.274876941564855,43.582724815201679],[-80.274767296343668,43.582687373850604],[-80.274631887994005,43.582607316224362],[-80.274508338493121,43.582526951871564],[-80.274365971165977,43.58234354529592],[-80.274328106189301,43.582056796129343],[-80.274315096868136,43.581832732065877],[-80.27431468546591,43.581698277837376],[-80.274388314439662,43.581581564460947],[-80.274455760359302,43.581460385367272],[-80.274504621557867,43.581307880914686],[-80.274504209835598,43.5811734275782],[-80.274460440709831,43.5809718497419],[-80.27440434130979,43.580770299881358],[-80.274360428628256,43.580523901149242],[-80.274322975936172,43.580371614131174],[-80.274279175729674,43.580161069640539],[-80.27430952323617,43.580004130167175],[-80.274407454002244,43.579770828765895],[-80.274474931353964,43.579658613464829],[-80.274560721025267,43.579488085545087],[-80.274603370396235,43.579322152322078],[-80.274615182733157,43.579151811318638],[-80.274577808758167,43.579026410346501],[-80.274484692772447,43.578815990571059],[-80.274373231579077,43.578654918511042],[-80.274305044210465,43.578534076934481],[-80.274261495076928,43.578404206504388],[-80.274254418691143,43.578305153929726],[-80.27425400750073,43.578170696902887],[-80.27430292113641,43.578036119983082],[-80.274407159050782,43.577852104920183],[-80.274411056753081,43.577847353835949],[-80.274536149555146,43.577694918824704],[-80.274751515897492,43.577564407863449],[-80.274886815655449,43.577456507775281],[-80.275071320776163,43.577312629328731],[-80.275237426616115,43.577200168990117],[-80.275495718702501,43.57699336030128],[-80.275673850772719,43.576782264979443],[-80.275728852338901,43.576625263282601],[-80.275814581326784,43.576436812986039],[-80.275820179796369,43.576253036077837],[-80.27575811821373,43.576118735065371],[-80.275677662752017,43.576015849186454],[-80.275597207395776,43.575912966782823],[-80.275479702561611,43.575792247342854],[-80.275349741018786,43.575626738642242],[-80.27524459539201,43.575514954686859],[-80.275207338324222,43.575425408188543],[-80.275188498184676,43.575313405942545],[-80.275175755305625,43.575178976922508],[-80.275193937142873,43.575075853361163],[-80.275213250151552,43.574939537822658],[-80.275237606444861,43.574840876203012],[-80.275231124450812,43.574737806973218],[-80.275199815383118,43.574581016475086],[-80.27510066279487,43.574410952229343],[-80.275063161918794,43.574240733245659],[-80.2750318546492,43.574083942699922],[-80.275019117394336,43.573949518289872],[-80.274963291850668,43.573837609988466],[-80.274876659852026,43.573730256998111],[-80.27482515514798,43.573680423631345],[-80.27479656965842,43.573656966573701],[-80.274776496611793,43.573643570812173],[-80.274736351607231,43.573618455684475],[-80.274691976890935,43.573596995426655],[-80.274684572847391,43.573594463385255],[-80.27468382538116,43.573594102002836],[-80.274590606424027,43.573562219331983],[-80.274424497957881,43.573510920255934],[-80.274259258058478,43.57341804983367],[-80.27403704323936,43.57332000016622],[-80.273888931145166,43.573266584250085],[-80.273771634348137,43.57320860609736],[-80.273700934206005,43.573163180346192],[-80.273697932199397,43.573163598899164],[-80.27369278288387,43.573160290476238],[-80.273652302659158,43.573134280556651],[-80.273497800200971,43.57300468895469],[-80.273399003975968,43.572951149064046],[-80.273224328640481,43.572878500822114],[-80.273125483379786,43.57280703135303],[-80.273032758342751,43.572722107993059],[-80.272878368131302,43.572628368069694],[-80.272754724190392,43.57251213941386],[-80.272696399971693,43.572455907487068],[-80.272643446544521,43.572404850229823],[-80.272625896683522,43.572380891142835],[-80.272587736362269,43.572328794284246],[-80.272561920540582,43.572312822352728],[-80.272530479705466,43.572293368700123],[-80.272483387104074,43.572235491149428],[-80.272487049912883,43.572232857275473],[-80.273148472471078,43.571757244009817],[-80.275648790981791,43.569959214086886],[-80.275798391152435,43.569851629384956],[-80.275920317534414,43.569763944800044],[-80.276912340522344,43.569050506992653],[-80.276910376349889,43.569046171673939],[-80.276908783733944,43.569042655436377],[-80.276908720976493,43.569042517256818],[-80.276903755107753,43.569031553916339],[-80.276903632030269,43.569031282101975],[-80.276894722172784,43.569011612876629],[-80.276888680036933,43.56899827370043],[-80.276865626494683,43.568947379582859],[-80.276813050537143,43.568831309432639],[-80.276784876761496,43.568769112362119],[-80.276751270416199,43.568694920732348],[-80.276688253973717,43.568555802219471],[-80.276675622219329,43.568527915664262],[-80.276647857910234,43.568466619769303],[-80.276611371979911,43.568386070877644],[-80.276599373768164,43.56835958218214],[-80.27658043596972,43.568317773999858],[-80.276582227076005,43.568316486046072],[-80.276588545030023,43.568311942056923],[-80.276590522372487,43.568310520125841],[-80.276637353189685,43.568276838398475],[-80.276810175345062,43.568152541683453],[-80.278380250552473,43.567023277405141],[-80.278404428041611,43.567005887225264],[-80.278488010935092,43.566945769002061],[-80.278494443461042,43.566941141836509],[-80.278590359609609,43.567196447845326],[-80.278615916896925,43.567252511370647],[-80.278659996163356,43.567349204297166],[-80.278776815034831,43.567605461285595],[-80.278813568734407,43.567686085016092],[-80.278841434833041,43.567747211729753],[-80.278919761667908,43.567971189873091],[-80.278957092077263,43.568077934564535],[-80.279022411412896,43.568264714607686],[-80.279023900288266,43.568270293912292],[-80.279069442319482,43.568440999204491],[-80.279096691046078,43.568543137697297],[-80.279142824999354,43.568716058091624],[-80.279144121741197,43.568720920455938],[-80.279144207082538,43.568721244207985],[-80.279145987561662,43.568727915833954],[-80.279494075789827,43.568477627299622],[-80.279498181385719,43.568474675493135],[-80.279510535742702,43.568483759318333],[-80.279762744417738,43.568669202520525],[-80.27977041100165,43.568663689872572],[-80.279998903447193,43.568499393190798],[-80.280022562789256,43.568482380237192],[-80.280036769311536,43.568472165356901],[-80.281698724701087,43.567277098684542],[-80.282168029816589,43.56693805220285],[-80.282175668832011,43.566943698980914],[-80.282179748574947,43.566940711767138],[-80.282183859537852,43.566943750408527],[-80.282438459738387,43.566757335492056],[-80.283059514007491,43.566302600501679],[-80.284380460368212,43.565335371102776],[-80.285372552448678,43.564618608206658],[-80.28619590934322,43.564014305046477],[-80.286658674936319,43.563697010780302],[-80.288546485912164,43.562402582187147],[-80.288639670539482,43.562418555575853],[-80.290679799072151,43.562768251193127],[-80.291085892777687,43.562836501387061],[-80.291557487011858,43.562917328668391],[-80.293649251165803,43.563268847163698],[-80.293928760218805,43.563315815229352],[-80.294048354568915,43.563335911758877],[-80.294107759959815,43.563345893286225],[-80.294256381169006,43.563370867201357],[-80.294350248455174,43.563386639407732],[-80.294398343910203,43.563394721209313],[-80.294411703009473,43.563396966513373],[-80.294422699236662,43.563398813597274],[-80.294428696656311,43.563399821250378],[-80.294430974247334,43.563400204448605],[-80.294434491414336,43.563400795222307],[-80.294436369784322,43.563401111186941],[-80.294496004892949,43.563444375943888],[-80.294670930902655,43.563315734017202],[-80.294672918779227,43.563314202135878],[-80.294679149054389,43.563318698538964],[-80.294729387860684,43.56327997173824],[-80.294798739431116,43.563226641975504],[-80.297825716973861,43.560978608954017],[-80.298935175817064,43.560168072166697],[-80.3000721758239,43.55933957487094],[-80.30160421424624,43.558215011431976],[-80.302173555228592,43.557787696698234],[-80.303244812109654,43.556983649147078],[-80.303464826550737,43.556818510673089],[-80.303502986590544,43.556789868615049],[-80.303580310862941,43.556731829555268],[-80.303574065822247,43.556727318233023],[-80.303492099446302,43.556668027979093],[-80.30298754938039,43.556301746924362],[-80.302519241649762,43.555961769921446],[-80.302295384318413,43.555799253555712],[-80.301850886172332,43.555476554002524],[-80.301786111936863,43.555429528544934],[-80.301760347037927,43.555410823483506],[-80.30173203439999,43.555390268648026],[-80.30179674181143,43.55534323342907],[-80.30187591862844,43.555285680500994],[-80.302000287494792,43.555195277997456],[-80.302066929774966,43.555146835298999],[-80.303069521285522,43.554418041015047],[-80.303753919007846,43.553920523215297],[-80.304072436894344,43.553688976828212],[-80.30446591299193,43.553402936703037],[-80.304581255335165,43.553319087309966],[-80.305542895920979,43.552620000421577],[-80.305809768802774,43.552425979194354],[-80.306703778977521,43.55177602364936],[-80.307597769853174,43.551126057286389],[-80.308497091804156,43.550472205532628],[-80.308763946987668,43.550278176220559],[-80.309297997936724,43.549889877524933],[-80.310399210084526,43.549089178778331],[-80.310749797762355,43.548834257486376],[-80.311596214340796,43.548206931524454],[-80.311837201587721,43.548027164841706],[-80.314004583788318,43.546363623653328],[-80.315853430429755,43.545012911988699],[-80.315850801562192,43.545011010773997],[-80.316028200479806,43.544881403216586],[-80.316113112065807,43.544819367171307],[-80.316115739563656,43.544821268371841],[-80.317711101696133,43.543661851669974],[-80.31819630176328,43.543308039383],[-80.318535564307638,43.5430606421425],[-80.31926172921392,43.542531097337118],[-80.319420116489397,43.542415594366304],[-80.319727655210471,43.542191321056485],[-80.319755548870447,43.542170979954456],[-80.319659319588624,43.542102626487534],[-80.319642831306851,43.542090914712574],[-80.318187638101961,43.541057233535753],[-80.317983086787237,43.540911928268876],[-80.319824748750818,43.539573653608493],[-80.322110025186305,43.537937307003602],[-80.322379856260724,43.537744086957737],[-80.323169936172263,43.537178323260356],[-80.323176371846841,43.537173714224835],[-80.32318935401095,43.537164418631804],[-80.32345918189796,43.53697119870673],[-80.323491968557988,43.536947719777018],[-80.324087182446675,43.536521480878633],[-80.324088408920602,43.536520602999751],[-80.324218619054179,43.536427357011839],[-80.324801283751086,43.536010093029219],[-80.325058934407281,43.535825579185193],[-80.325266992674798,43.535676578314742],[-80.325536802385173,43.535483346978999],[-80.32563095422708,43.535415919659869],[-80.325881449746191,43.535236524767022],[-80.326076467580918,43.53509685845723],[-80.326190956716658,43.535014865598022],[-80.326371597071827,43.534885495003358],[-80.326703179226499,43.534648021555824],[-80.326732880475817,43.534626750245664],[-80.32683597994793,43.53455291137864],[-80.326888687953513,43.5345151627427],[-80.326885975517271,43.534513227950171],[-80.326874166734498,43.534504808800179],[-80.326869048817017,43.534501160786768],[-80.325803133135565,43.533741240037941],[-80.324718018703621,43.532967598514688],[-80.324178084439538,43.532577623058891],[-80.323790769119228,43.532304495147017],[-80.323252385717254,43.531919444351786],[-80.323002472812718,43.531700013210667],[-80.32279283762773,43.531545622492679],[-80.322301724810956,43.531183926770801],[-80.321628527555845,43.530688118591172],[-80.32126277811993,43.530418740471852],[-80.321096285673264,43.530296116670371],[-80.320834293877354,43.530103152513298],[-80.320782770864895,43.530065205245009],[-80.320468498661626,43.529833732786784],[-80.320324291559942,43.529727519059342],[-80.320284509334726,43.529698216917872],[-80.320057138679175,43.529530748819724],[-80.320019727928127,43.529503193990223],[-80.319715145561631,43.529278852681735],[-80.319597125928667,43.529191925022403],[-80.319590457600015,43.529187013178813],[-80.319570324936663,43.529172184033683],[-80.319561753899364,43.529166014652134],[-80.319559670652112,43.529164513900788],[-80.319167194573239,43.528881983144117],[-80.317981107230125,43.528011988012679],[-80.317934318766405,43.527977667459588],[-80.316207304226353,43.526710830142278],[-80.315989686878382,43.526551192780168],[-80.314165197922023,43.525212751840364],[-80.313994504103547,43.52508076758815],[-80.313952762156688,43.525049228355392],[-80.311140581269768,43.522955965735655],[-80.309830014788062,43.521975721242455],[-80.309827353921406,43.521977604168754],[-80.309654786903067,43.521848532940318],[-80.309657447644852,43.521846650017224],[-80.309516641394268,43.521741333546061],[-80.309421729456119,43.521670343557822],[-80.309353789128423,43.521619527498828],[-80.309326817863962,43.521599353582722],[-80.309231906494304,43.521528363529484],[-80.30913699534824,43.521457373307463],[-80.309042084299165,43.521386383097123],[-80.308947173598156,43.521315392718762],[-80.308882461969247,43.521266990123166],[-80.308830692981275,43.521228268746718],[-80.308778924059524,43.521189547346957],[-80.308727155215323,43.521150824927581],[-80.308675386425989,43.521112103481336],[-80.308623617713181,43.521073381106],[-80.308571849056236,43.521034659613235],[-80.308507138027309,43.5209862568069],[-80.308442427102875,43.520937853873612],[-80.308390658677638,43.520899132299455],[-80.308338890318609,43.520860410702021],[-80.308287122036134,43.520821688175523],[-80.308235353810531,43.520782966441047],[-80.308183585660501,43.52074424386803],[-80.308131817566263,43.520705522177586],[-80.30806710724076,43.520657119124145],[-80.30798453740131,43.520595357230441],[-80.30790197637117,43.520533601671026],[-80.307819415509414,43.520471846052452],[-80.307736854814991,43.52041009046534],[-80.307654294290003,43.520348334728467],[-80.307481021168485,43.52021872380098],[-80.30726958765986,43.520060567510491],[-80.307044808446335,43.519892426263453],[-80.307039455612951,43.519894494548794],[-80.30696082703588,43.519924878193578],[-80.306601144461155,43.520063864863317],[-80.306519184687261,43.520095535361584],[-80.30645361668148,43.520120871789025],[-80.306388048756034,43.520146207273349],[-80.306322480766696,43.520171543534829],[-80.306256912721793,43.520196879848768],[-80.306191344498913,43.520222216033289],[-80.30612577635533,43.520247551365259],[-80.306043816086159,43.520279221608945],[-80.305854574302231,43.520352345113672],[-80.305496690123235,43.520490631542479],[-80.305006410815722,43.520680071948902],[-80.304995743252618,43.520684194065289],[-80.304718589813362,43.520791201845974],[-80.304565678642476,43.520850240073798],[-80.304455842956131,43.520892647277513],[-80.304346006992432,43.520935054373588],[-80.304236171000269,43.520977461363572],[-80.304149243657463,43.521011023283215],[-80.304083400558582,43.521036444904034],[-80.304017557404762,43.52106186648637],[-80.303950599332694,43.521087717875652],[-80.303883641202745,43.52111356931578],[-80.303817797883269,43.52113899069105],[-80.303751954507774,43.521164412118502],[-80.303665037886631,43.521197969204444],[-80.303578121045234,43.521231526222735],[-80.30351227746975,43.521256947510381],[-80.303446433839326,43.521282368759607],[-80.303379475282583,43.521308219810095],[-80.303312516667972,43.521334070911429],[-80.303246672871907,43.521359491953554],[-80.303180829019823,43.521384913047882],[-80.303093900514327,43.521418474154821],[-80.302987275642323,43.521459638895564],[-80.302880518957835,43.521500854186549],[-80.302773762005486,43.521542069285204],[-80.302667005033172,43.521583284283665],[-80.302560247791931,43.521624499180383],[-80.302555499881365,43.521626332246619],[-80.302453490530752,43.521665713976923],[-80.302346733000647,43.521706928671712],[-80.302259803586679,43.521740488230499],[-80.302193958911076,43.521765908749146],[-80.302128114181571,43.521791329138814],[-80.30206115450504,43.521817179497859],[-80.30199419477276,43.521843029726554],[-80.301928349875524,43.521868450090281],[-80.301862504923335,43.521893870415596],[-80.301775586220828,43.521927426046659],[-80.301688667298123,43.52196098161],[-80.301622822145916,43.521986401795473],[-80.301556976938784,43.522011821942527],[-80.301490016778658,43.522037671872212],[-80.301423056560651,43.522063521852708],[-80.301357211187863,43.522088941792681],[-80.301291365759056,43.522114361784809],[-80.301204435182441,43.522147920530806],[-80.301067879241288,43.522200636704405],[-80.300926863291409,43.522255074057114],[-80.300784764567268,43.522309928654082],[-80.300642665586224,43.52236478316275],[-80.300533358911807,43.522406978296779],[-80.300424052087038,43.522449173234385],[-80.300314745110853,43.522491368066142],[-80.300205437857741,43.52253356288184],[-80.300098021169077,43.522575028068637],[-80.299835354632108,43.522676421931997],[-80.299763812631582,43.522704038234266],[-80.299692270689633,43.522731654582586],[-80.299620728683877,43.522759270794936],[-80.299549186612197,43.522786887052511],[-80.299519738442498,43.522798254474438],[-80.298682923989105,43.523121270266145],[-80.298469146375552,43.523203788075115],[-80.297998984947682,43.523385267514705],[-80.297770653891234,43.523473400676174],[-80.297426889408413,43.523606089275781],[-80.296267135254368,43.522756701165683],[-80.296033822252895,43.522585822377941],[-80.294197316425169,43.521240707798007],[-80.293830095181789,43.520971733095323],[-80.293592132595464,43.520797433129552],[-80.291846131497735,43.519473324258499],[-80.291632290537407,43.519316952929387],[-80.291073651871017,43.518908443971924],[-80.290082291380571,43.518575262517317],[-80.28979101592607,43.518504627874584],[-80.289757382306632,43.518496471873185],[-80.289422712894407,43.518442980025227],[-80.288404485559113,43.518354719536859],[-80.288361648669564,43.518351651677271],[-80.288345549582758,43.518340211527054],[-80.285290033377947,43.516168791845189],[-80.28514380983259,43.516061826684769],[-80.285082828114923,43.516017217487466],[-80.284947612218559,43.51591830403418],[-80.284944966310533,43.515916368657876],[-80.284873753303557,43.515864269524407],[-80.28469846910518,43.515736045795521],[-80.284627266351208,43.515683957441865],[-80.284624614407633,43.515682018396816],[-80.284436187581591,43.515544175681278],[-80.283865553450241,43.515126724822871],[-80.283805727968129,43.515082958667449],[-80.283049178120166,43.514529486113659],[-80.283025940021602,43.514512485280328],[-80.28299969777828,43.514493287602519],[-80.282995611058666,43.514496233342214],[-80.282978781952067,43.51450836457451],[-80.282847863515627,43.514412584718833],[-80.282566496814653,43.51420673481342],[-80.282583328304696,43.51419460184438],[-80.282587416278972,43.514191655221232],[-80.282573656380777,43.514181588560312],[-80.2825571426294,43.514169507520528],[-80.282143635200484,43.513866986134992],[-80.282090143806343,43.513827851006504],[-80.281952469667971,43.513727128531215],[-80.281949823951422,43.513725193086202],[-80.281878603903962,43.513673081246786],[-80.281703809518646,43.513545207081236],[-80.281632594787055,43.513493102367626],[-80.281629942910868,43.513491163252944],[-80.281251633342436,43.513214385931207],[-80.28124898642605,43.513212450462298],[-80.281177754103354,43.513160330948885],[-80.281002963797945,43.513032455728222],[-80.280931730579866,43.51298034230512],[-80.280929078871949,43.512978403265677],[-80.279748430897513,43.512114580056448],[-80.27974578532185,43.512112644560879],[-80.279674638971571,43.512060587602903],[-80.279537884266247,43.511960528009695],[-80.279526440866434,43.511952154891638],[-80.279499864970532,43.511932710167052],[-80.279472461109805,43.51191266061813],[-80.279428723810668,43.511880660334434],[-80.279426073319129,43.511878721267486],[-80.27928860187339,43.511778139056794],[-80.279228195520858,43.511733941786005],[-80.278969799151696,43.511553142468514],[-80.278412685781404,43.511163804907341],[-80.278401417477099,43.511155929835844],[-80.278386738215033,43.511145670434693],[-80.278382769599247,43.511148565483907],[-80.278366189642057,43.511160658935736],[-80.278130076040171,43.511332870218482],[-80.278081273113969,43.511297912898925],[-80.277773488624405,43.511077446876385],[-80.277766513970263,43.511082484792915],[-80.277134835663404,43.511538742208153],[-80.276871626898568,43.511728853819761],[-80.276826466303092,43.511761472377671],[-80.276826385193786,43.511761531290233],[-80.276628046596272,43.511904785741436],[-80.276440619214,43.512040159095491],[-80.276163471314376,43.512240334009142],[-80.275950628118906,43.512394061055026],[-80.275771717628899,43.512523279617646],[-80.2757008712463,43.512574449453439],[-80.275501915883481,43.512718142896219],[-80.275436224558803,43.512765588648527],[-80.275264959485654,43.512889381185111],[-80.275180971707357,43.512950089352366],[-80.274873861226737,43.51317207219509],[-80.274764424243983,43.513251174548273],[-80.274458253034254,43.513472474204868],[-80.27442180451682,43.513498818989383],[-80.274417655866372,43.513495850915781],[-80.274384328856797,43.513472005075833],[-80.274371989564514,43.513463175628161],[-80.274333587742646,43.513435698515394],[-80.274316438582758,43.513423427634351],[-80.274278245380259,43.513396099575552],[-80.274166240850377,43.513315957646199],[-80.273907808304486,43.513131041729977],[-80.273802923221879,43.513055993380199],[-80.273119701524578,43.512567117266556],[-80.273117888074722,43.512571623167027],[-80.27289555777773,43.513124151410778],[-80.272836258083927,43.513271520425114],[-80.27260687791653,43.51384155611057],[-80.272516098698944,43.514067146993575],[-80.272509276994427,43.514084213524555],[-80.272419950222385,43.514307683211662],[-80.272346253812202,43.514492050555951],[-80.272272186940384,43.514677345643136],[-80.272257508796443,43.514714064252843],[-80.272133328200496,43.515024721361868],[-80.272068801630624,43.515186144669713],[-80.27205409384635,43.515222936890126],[-80.272037942069673,43.515263348676534],[-80.271994254518418,43.515372653903903],[-80.271934413646491,43.515522370781845],[-80.271874572472996,43.515672087713057],[-80.27182622828353,43.515793040781055],[-80.271814731000148,43.515821804516371],[-80.271754889226884,43.515971521282367],[-80.27173713848299,43.51601593152246],[-80.271680813322519,43.516156847403437],[-80.271657686856571,43.516214708992749],[-80.271652699119841,43.516227186834627],[-80.271631493854471,43.516280239761379],[-80.27162456318834,43.516297578298051],[-80.27162451341114,43.516297701361346],[-80.27120890392996,43.516351539152261],[-80.271048991778386,43.516372254156011],[-80.271005701340215,43.51637786154263],[-80.270503571571112,43.516442903815708],[-80.27035207702454,43.516462527066473],[-80.269965528553655,43.516512596619556],[-80.269962368499748,43.516513005918434],[-80.269476921313156,43.516575384103483],[-80.26941631327999,43.516583171743854],[-80.269432347278979,43.516645407920791],[-80.269490068342378,43.516869448287494],[-80.26949228210583,43.516878039000503],[-80.269510457976537,43.516948585319888],[-80.269547593512939,43.517092725613509],[-80.269552387536038,43.517111331060839],[-80.269528065031253,43.51712639195064],[-80.26938215007786,43.517216743629184],[-80.26888712430511,43.517523263667734],[-80.268888251347803,43.51752768566417],[-80.268918430545966,43.517652373893043],[-80.268951348823805,43.517788379981923],[-80.26895417484009,43.517800054961221],[-80.268425504815824,43.517870308255176],[-80.268204830831124,43.517899632885644],[-80.268104608941584,43.517912950655905],[-80.268212333090901,43.518336642834363],[-80.268237261712827,43.518434691031551],[-80.268381719151648,43.519002848028464],[-80.268351929282275,43.519006941560967],[-80.267425978334998,43.519134169731515],[-80.267580787801094,43.519730839234128],[-80.266867643205458,43.52026533930929],[-80.264534667905167,43.521962449830482],[-80.263168919582981,43.522955888854732],[-80.262670918842105,43.52332128883603],[-80.262695019073547,43.523233789919168],[-80.262703218578764,43.523197989778396],[-80.262709119706187,43.523172188364612],[-80.262728519348641,43.523087589090082],[-80.26273421908337,43.523062989378673],[-80.262741719590636,43.522977789410547],[-80.262744119846161,43.522950488751128],[-80.262745419007061,43.522943988864824],[-80.26275621857107,43.522890388812208],[-80.262770418881658,43.522820088946027],[-80.262826619088386,43.522749489000887],[-80.262856019870725,43.522712589202378],[-80.2629158192007,43.522690489449452],[-80.262988319622295,43.522645988791353],[-80.263010718906827,43.522583088305552],[-80.263036019392715,43.52247518892969],[-80.263021018542162,43.522438988921188],[-80.263020318758279,43.522417188768131],[-80.263018218850974,43.522348888958952],[-80.263059819820526,43.522304189072813],[-80.263103419283212,43.522272988639735],[-80.26316691907175,43.522268988539302],[-80.263251318868967,43.522260388613667],[-80.263308219237047,43.522224888737981],[-80.263333519643538,43.52217988922748],[-80.263345919657226,43.522120288212925],[-80.263346619369926,43.522117089000858],[-80.263347419055549,43.522058488336803],[-80.263325819122116,43.521986388292952],[-80.263345119034284,43.52192788789452],[-80.263360419975854,43.521918988594948],[-80.263414419357233,43.52188778837386],[-80.263495819323794,43.521874888314699],[-80.263571619543569,43.521870788948071],[-80.263672219511918,43.521867088762789],[-80.263747220382569,43.52186298857054],[-80.263829220590608,43.521867988984724],[-80.263933019754873,43.521855288729029],[-80.264023919286544,43.521815289118429],[-80.264103019889077,43.521739288448906],[-80.264167020264253,43.521622588640732],[-80.264217919962789,43.521510488589712],[-80.26424642087855,43.521389087872606],[-80.264266020532006,43.521303589155536],[-80.264276619285894,43.521200088017466],[-80.264243220033308,43.521149288253284],[-80.264237619003339,43.521140889071951],[-80.264214320136531,43.521105188667427],[-80.264173219987612,43.521050887935573],[-80.264164819706508,43.520978888296227],[-80.264153319648727,43.520843587921711],[-80.26412671906958,43.520738088792044],[-80.264113519820825,43.520685888246582],[-80.264107819916916,43.52051918866605],[-80.264109019856392,43.520348188093571],[-80.264078320105384,43.52027598811118],[-80.264084820130833,43.520220187579298],[-80.26408771990863,43.520194888093684],[-80.264088219380241,43.520158987905283],[-80.264076319526637,43.520118288655006],[-80.264060420111591,43.520086787652026],[-80.264010920722626,43.520027887554988],[-80.26397941970869,43.520014188304373],[-80.26395111966356,43.519982387781134],[-80.263882119911216,43.519923488094832],[-80.263826719682669,43.519846588212275],[-80.263805420225736,43.519795288086812],[-80.263761419801071,43.519688587408034],[-80.263762120168181,43.519566988003326],[-80.263769519729621,43.519545487574405],[-80.263794220093629,43.519472787997898],[-80.26382041971732,43.519346887532656],[-80.26383031919066,43.519229887241259],[-80.263856720273054,43.519103988059435],[-80.263885519056487,43.518960187703222],[-80.26391491949164,43.51882978685564],[-80.263969219167322,43.51868608759532],[-80.264045419995682,43.518528986974879],[-80.264106219221432,43.518421186964716],[-80.264147719620951,43.518318087321546],[-80.264153919560073,43.518266387096645],[-80.264164120167194,43.518183087023374],[-80.264136720262712,43.518083887513505],[-80.264125919216269,43.518041587304822],[-80.264118219030394,43.518011686850983],[-80.2641065195576,43.517890086863396],[-80.264076019337153,43.517790887127482],[-80.264036020040081,43.517650887611609],[-80.263996019135135,43.517502187124144],[-80.26394991976899,43.517353287199953],[-80.263916319129365,43.517258586780542],[-80.263923919521716,43.517114686759754],[-80.263926318716486,43.517069487458947],[-80.26395911949497,43.516916686914406],[-80.263994619260643,43.516795286286921],[-80.263993018795958,43.516741587302462],[-80.263991919888241,43.51670068660102],[-80.263973819613568,43.516592586775218],[-80.263962019783591,43.516484386097197],[-80.263927519507163,43.516398685920684],[-80.263884619035991,43.516299386528459],[-80.26384701981442,43.516209186722136],[-80.263807119169471,43.516123386873687],[-80.263666818574578,43.516027886674877],[-80.263556818915802,43.515973186137224],[-80.263506920042701,43.515950186639103],[-80.263437418761399,43.515936386477406],[-80.263362919460576,43.515895386555933],[-80.26333191998495,43.515836586382889],[-80.263259718815448,43.515737086270363],[-80.262790119148335,43.51537158648572],[-80.262682118913943,43.515287586445481],[-80.262569918366097,43.515165386737266],[-80.262494819105171,43.51511078588873],[-80.262350018978807,43.515123486037034],[-80.262303318609185,43.515082586408958],[-80.262281118538837,43.51506898636849],[-80.26227831850899,43.515041786287966],[-80.262190518260084,43.515014286207141],[-80.262140218320312,43.515009486574343],[-80.262064618314426,43.514999886356414],[-80.261964018096137,43.515008386195007],[-80.261876717572505,43.51499878596529],[-80.26173561735375,43.514966386225069],[-80.261678818745494,43.514929986302441],[-80.261572817966268,43.514875286299485],[-80.261494418091587,43.5148297865614],[-80.261444717857259,43.514793386533825],[-80.261369518642752,43.514738886118572],[-80.2613229181934,43.514697985827596],[-80.261272317528523,43.514661785993987],[-80.261237117834028,43.514610385661094],[-80.261235017744866,43.514607486239292],[-80.261166617996878,43.51451248628441],[-80.261136218321269,43.514399585514894],[-80.261114917551282,43.514309486485089],[-80.26106831810057,43.51420558524692],[-80.261015117798138,43.514128786473222],[-80.261012316793241,43.514063485797521],[-80.261009717033545,43.51400268591302],[-80.26099491725509,43.513885586450023],[-80.260990117005989,43.513871786091997],[-80.260933617899468,43.513709585951865],[-80.260909017309984,43.513637385785088],[-80.260861417444048,43.513605485793477],[-80.260820617175128,43.513587285567517],[-80.260761416763543,43.513559785658828],[-80.260705517532898,43.513518885317943],[-80.260648817096779,43.513473585720895],[-80.26063351757746,43.513396985823377],[-80.260618817325025,43.513338285763567],[-80.260608317405115,43.513316985913484],[-80.260587717186269,43.513275085595247],[-80.260534416836222,43.513220785663599],[-80.260346316418193,43.513174485627076],[-80.260296217756604,43.513156085463756],[-80.26024641807625,43.513119885911102],[-80.260195816829807,43.513083485752325],[-80.260101817583092,43.513051386028884],[-80.260096117043034,43.513015286258394],[-80.26010291780473,43.512965785308339],[-80.260077917471193,43.512925185433879],[-80.260052616907629,43.5129023860001],[-80.259990317029633,43.512875085305772],[-80.25994971658497,43.512847785436939],[-80.259931017348308,43.512798085288424],[-80.259915916880644,43.512761985900291],[-80.25988148766497,43.512727898084215],[-80.25986551696225,43.512712085883507],[-80.259824916580612,43.512684885978921],[-80.259807816687569,43.512672885185452],[-80.259746717479302,43.512630385803327],[-80.259693517192147,43.512616485439608],[-80.259660157797768,43.512605628186471],[-80.259608716939766,43.512588885753097],[-80.259564617675238,43.51259318518062],[-80.259513316439566,43.51254518622325],[-80.259496617043425,43.512529685311812],[-80.259480716435547,43.512502584921364],[-80.259470142609715,43.512473305790195],[-80.259520295833482,43.512436277399132],[-80.259594964887071,43.512381172437401],[-80.259624640678936,43.512359271799873],[-80.259705443183208,43.51229963850524],[-80.259763437588859,43.51225683870252],[-80.259755225006174,43.512248451188654],[-80.259730248581889,43.512222943394882],[-80.259673867353186,43.512165363578212],[-80.259653642601862,43.512151022122254],[-80.259649478406146,43.512148068811875],[-80.259645908639641,43.512137787179434],[-80.259633789104228,43.512114620877412],[-80.259618660200346,43.512104547117538],[-80.259606895040093,43.512096713812902],[-80.25958650164128,43.512075533418972],[-80.259568703686242,43.512038275650298],[-80.259539888603271,43.512004866985613],[-80.25951010955734,43.511948400300057],[-80.259323974038324,43.511595451968603],[-80.259308413712048,43.511565946022891],[-80.259201949137193,43.511483460882467],[-80.25918450207736,43.5114699432078],[-80.259132382760114,43.511429561819625],[-80.259017011394818,43.511340175520886],[-80.25901447313241,43.511337206544539],[-80.258970148449777,43.511285374486391],[-80.258897374093252,43.511200272826429],[-80.258748556116487,43.511033397651104],[-80.258747554231363,43.511032273755859],[-80.258592708220192,43.510920495979896],[-80.258585269306096,43.510915126255121],[-80.25847990228327,43.510839064788051],[-80.258463144725056,43.510827865537898],[-80.258444318304811,43.510815284267295],[-80.258355440591558,43.51075588671565],[-80.258172396777326,43.510633556962027],[-80.257992285234963,43.510513186423402],[-80.257793904951271,43.510307556473975],[-80.25777481965153,43.510281389596038],[-80.257698905853957,43.510177304769066],[-80.257546784101066,43.510068877513461],[-80.257421861120847,43.509973599960901],[-80.257351861505072,43.509896388666753],[-80.257207026908929,43.509842814338484],[-80.257205930161462,43.50984255873108],[-80.257198585313759,43.509840845195647],[-80.257037327858853,43.509803217739332],[-80.257032819251222,43.509801131827778],[-80.256911219442557,43.509744879048931],[-80.25690365673475,43.509653320670935],[-80.256824608355913,43.509379201111514],[-80.256727091013602,43.508861273233634],[-80.256723005005469,43.50883957436001],[-80.256716571353323,43.508796987440817],[-80.256709183359177,43.508748080620173],[-80.256651838431409,43.508679910281472],[-80.256607000463987,43.508621331590966],[-80.256575255482403,43.50857985873548],[-80.256545444698972,43.508524420209021],[-80.256523786100146,43.50848414291579],[-80.25641653120249,43.508430202460303],[-80.256322064925072,43.508394466991781],[-80.256194730471691,43.508249085404685],[-80.256117494156982,43.508103227292622],[-80.255835959765591,43.507684449884522],[-80.255795963735167,43.507654196392771],[-80.255754928480727,43.507623155527263],[-80.255728318482838,43.507603027087931],[-80.255633723987657,43.507558123904481],[-80.255627133986778,43.507535279508339],[-80.255600983368041,43.507457644817642],[-80.255562433006077,43.507389299154298],[-80.255466801571401,43.507271100738912],[-80.255430605009153,43.507231891980489],[-80.25528232774279,43.507071297163193],[-80.255097462203182,43.506844006933797],[-80.255021397051777,43.506780603179493],[-80.255001698841156,43.506716651821662],[-80.254994075771634,43.506620516835206],[-80.254967345894784,43.506501656772116],[-80.254951447957694,43.506476238593422],[-80.254902566505891,43.506398084649163],[-80.254890441610314,43.506378698742864],[-80.254824510985713,43.506145682936925],[-80.254822510777842,43.506003678200699],[-80.254842927242464,43.505929464114011],[-80.254864212645941,43.505852089731697],[-80.254913151445891,43.505769155366771],[-80.254879702851554,43.505618286298883],[-80.254851935539349,43.50542613559346],[-80.254834557602763,43.505082697342836],[-80.254730335344021,43.504799657290107],[-80.254646528632023,43.504630951144811],[-80.25454768166081,43.504570978659686],[-80.254520171264957,43.504554286306934],[-80.2545123534872,43.504551751959049],[-80.254433756681223,43.504526279710767],[-80.254412731792527,43.504519466828611],[-80.254369151895787,43.504505344979826],[-80.254368802417574,43.504504992397528],[-80.254261130321638,43.504396429128754],[-80.254165254114611,43.504259909750523],[-80.254126506721889,43.504177819109294],[-80.254132983614241,43.50413925290966],[-80.254138065628425,43.504108986780757],[-80.254187522708463,43.504062695245068],[-80.254211733841942,43.504002901948709],[-80.254223095516195,43.503920328681794],[-80.25419597449249,43.503773983923764],[-80.254156719913652,43.503655245377246],[-80.254129730012068,43.503518064142732],[-80.254121975207525,43.503412764590571],[-80.254133015285333,43.50330728788952],[-80.254218753532598,43.503169023164055],[-80.254230567816279,43.503027467723868],[-80.254239520677686,43.502920186378468],[-80.254245539647414,43.502848064607235],[-80.254244018361931,43.502813875427748],[-80.254240470356976,43.502734117836887],[-80.25423665591596,43.50264836521319],[-80.254236371907496,43.50264198742375],[-80.254212599590332,43.502573136228129],[-80.254190652398307,43.502509568874636],[-80.254190385003056,43.502508989089186],[-80.254179938721094,43.502486373354053],[-80.254149174639068,43.502419768137429],[-80.254125944634012,43.502369472765999],[-80.254106361915504,43.502327077255728],[-80.254099573694191,43.502312377573745],[-80.254092820925337,43.502313487881736],[-80.254092220909385,43.502312188288883],[-80.254090900380405,43.502309328873466],[-80.254085074929449,43.502296708393928],[-80.254084599978057,43.502263044650874],[-80.254084043926923,43.502223414170103],[-80.254088773097578,43.502210432979147],[-80.254110499053766,43.502150794501688],[-80.254114191249073,43.502140659157085],[-80.25413827196401,43.502071709468936],[-80.254150280412745,43.502034942359799],[-80.254127346327181,43.501966859176335],[-80.254124129104937,43.501957308162133],[-80.254080773279782,43.501856510724913],[-80.254059367767141,43.501806744132494],[-80.254039288071866,43.501715311770958],[-80.254033387876689,43.501562194598435],[-80.25402940578887,43.501458844702299],[-80.254015584758037,43.501367351434389],[-80.253970063687987,43.501248674526423],[-80.253874451568805,43.501132328761173],[-80.253861734434096,43.50111685298635],[-80.253800564373819,43.501016909009827],[-80.253797620216815,43.501012102224784],[-80.25378503890667,43.500970537559368],[-80.253771346341139,43.500925303533116],[-80.253769379205337,43.50090996901919],[-80.253757266667222,43.500815486591058],[-80.253753023718772,43.500689365971724],[-80.253746480838885,43.500494893357619],[-80.253742011130953,43.500475256522606],[-80.253708688814143,43.500328860309104],[-80.253666359170623,43.500142894553925],[-80.253611575602548,43.499992833891184],[-80.25359469096604,43.499946585792706],[-80.253524067067346,43.49982356417032],[-80.253470242970238,43.499787933108948],[-80.253400856554038,43.499741998664575],[-80.253283920955184,43.499664587150242],[-80.253264855762282,43.499651965671255],[-80.253182420573808,43.499635799392401],[-80.25301991072044,43.499603923422299],[-80.252842808048683,43.499544954397372],[-80.252805960189932,43.499532687512314],[-80.252661607502077,43.499511164855335],[-80.252561670541624,43.499530454256316],[-80.25255875084035,43.499531506643734],[-80.25244321995909,43.4995732379817],[-80.252418341969957,43.499582224521127],[-80.252293677512867,43.499624656836119],[-80.252205936075541,43.499620918873163],[-80.252160894610824,43.499619704995524],[-80.252105429220492,43.499618210397074],[-80.252080632016046,43.499617542077885],[-80.252063308476792,43.499621175473628],[-80.252011942945742,43.499631949790995],[-80.251992820734628,43.499643413152413],[-80.251949831973832,43.499669198399332],[-80.251862612638789,43.499702105586408],[-80.251787594256214,43.499711990275017],[-80.251570208734961,43.499673290769351],[-80.251567830407623,43.499672866377942],[-80.251480717142329,43.499617977063281],[-80.251285010082739,43.499651292746726],[-80.251237999275119,43.499659295793755],[-80.251126426927542,43.499678288971793],[-80.250944156078575,43.499709315861772],[-80.250885044694471,43.499719377997401],[-80.25071661805552,43.499748052343641],[-80.250645844806968,43.499760118917031],[-80.250549514483552,43.499776543339237],[-80.250400392228585,43.499801925780126],[-80.250017864116472,43.499867037431137],[-80.249911068379845,43.499885215205786],[-80.249536174976768,43.49994902566003],[-80.249431155147107,43.499966900392778],[-80.249308715818159,43.499987740106256],[-80.249290558864331,43.499990830876158],[-80.249289150688057,43.49999107020362],[-80.249251918918631,43.499995651994432],[-80.249246065521348,43.499996372596428],[-80.249242723112687,43.49999678375044],[-80.249040878215354,43.500021622819702],[-80.24892703993676,43.500040793458759],[-80.248445687249955,43.500121852674788],[-80.248124632160682,43.500175916800757],[-80.247307796436758,43.500313462488855],[-80.246887559991123,43.500384223100951],[-80.246753119247217,43.500406860269287],[-80.246625369453326,43.500428370699289],[-80.246549211951546,43.500441193440693],[-80.246246640234247,43.500492139645338],[-80.246213376970417,43.500497739813369],[-80.24596849071834,43.500538972808116],[-80.245876120842794,43.500554525304167],[-80.245866063218628,43.500556218456097],[-80.245789819726454,43.500569055342694],[-80.245789304595036,43.50056771033794],[-80.245773167629309,43.500525557608782],[-80.245771238856264,43.500520520427742],[-80.245749150304448,43.500462819514681],[-80.245694460946382,43.500319959161622],[-80.245629626198337,43.500150594396793],[-80.24556387646092,43.499978836471165],[-80.245531188496898,43.499893463889151],[-80.245494868496365,43.499798589478409],[-80.245421994097015,43.499608223979052],[-80.244952603878176,43.49838203682922],[-80.244450868616184,43.497071287152025],[-80.244401910996103,43.496943393958844],[-80.244317590833518,43.49672309478045],[-80.244249313753272,43.496544722865046],[-80.244211180659278,43.496445101521289],[-80.244178636702159,43.496360076135431],[-80.244146057865905,43.496274981118148],[-80.244113523862808,43.496189970180659],[-80.244080980310912,43.496104943860246],[-80.244048435300442,43.496019931923236],[-80.244015863089075,43.495934833375003],[-80.243983319840538,43.495849804307639],[-80.243950776377673,43.49576478963187],[-80.24391823803694,43.495679770540747],[-80.243885652938303,43.495594646591428],[-80.243853113477627,43.495509631910792],[-80.243820575362264,43.495424616322744],[-80.24378803247285,43.495339601598559],[-80.243755452585276,43.495254477732495],[-80.243722909965982,43.495169455742165],[-80.24367543449209,43.495045431230935],[-80.243603370336913,43.494857136277545],[-80.243508684269315,43.49460976049285],[-80.243501598345077,43.494591242266438],[-80.243493933601627,43.494592536785333],[-80.243158943984909,43.494649138468354],[-80.243019036580932,43.494672774134905],[-80.242898459457493,43.494693144837413],[-80.242770081127858,43.494714837786177],[-80.242685289169913,43.494729165603864],[-80.242572540199362,43.494748214678907],[-80.242432556778894,43.494771862621015],[-80.242282989731308,43.494797131546029],[-80.242125802382148,43.49482368874623],[-80.242056281425135,43.494835433195803],[-80.241956424887732,43.494852303422384],[-80.241769460573536,43.494883890543875],[-80.241766588831553,43.494884374897325],[-80.241757569307111,43.494885898924153],[-80.241503786866673,43.49492877688543],[-80.241243949499577,43.494972672078916],[-80.241060763480448,43.495003622273877],[-80.241016431698611,43.495011112139224],[-80.240827128923101,43.495043087485669],[-80.240765057964097,43.495053574064549],[-80.240637943588467,43.495075048804267],[-80.240448635355165,43.495107030643553],[-80.240259449629548,43.495138991332517],[-80.240070151015658,43.495170968078938],[-80.239900454365824,43.495199635198588],[-80.239801890510975,43.49521628521196],[-80.239787005738364,43.49521880025317],[-80.23955020268447,43.495258801800688],[-80.239225467412751,43.49531365481824],[-80.239042149353395,43.495344620644907],[-80.238858850927969,43.495375583590352],[-80.238727544633861,43.495397763057255],[-80.238675532511934,43.495406548010841],[-80.238492223856056,43.495437513017372],[-80.238308846843324,43.495468486333088],[-80.238125640583405,43.495499432500459],[-80.237942434286254,43.495530376652518],[-80.237759316928262,43.495561308421266],[-80.237576110230577,43.495592254700632],[-80.237559728027406,43.495595021446796],[-80.237392908247784,43.495623197094019],[-80.237209681367247,43.49565414527796],[-80.236926591200913,43.495701956233923],[-80.236733066161833,43.495734643060032],[-80.236631131716493,43.495751859375694],[-80.236514884925057,43.495771493212942],[-80.236357289840285,43.495798110862353],[-80.236345093201223,43.495800170629977],[-80.236013645355726,43.495856149136912],[-80.235742857885796,43.495901879292703],[-80.235613220186806,43.49592377545418],[-80.235483809234566,43.495945632491789],[-80.235443981659117,43.495952358934765],[-80.235222925698039,43.495989688891534],[-80.234968306342267,43.496032689951264],[-80.234779086542176,43.496064644957137],[-80.234495743428553,43.496112495028513],[-80.234471421842386,43.496116602958963],[-80.234236854168998,43.4961562149416],[-80.234129722404461,43.496174306436657],[-80.233949272365138,43.49620477908659],[-80.233838185140726,43.496223538888202],[-80.23377457238584,43.496234280563641],[-80.233724871687812,43.496242673552459],[-80.233724358161965,43.496241323973926],[-80.233716737446699,43.496221303239551],[-80.233713813034981,43.496213622798344],[-80.233694921638133,43.496163991683048],[-80.233673636256441,43.496108073839672],[-80.233645712957497,43.496034718976013],[-80.233616939836011,43.495959130669462],[-80.233580966368891,43.495864623893979],[-80.233523428835753,43.495713468129537],[-80.233425420070915,43.49545599048826],[-80.233157616016356,43.494752430075792],[-80.233090051911034,43.494574927881175],[-80.232255366550532,43.492381967925532],[-80.232195093319135,43.492223608502243],[-80.232156781817224,43.492122948182775],[-80.231937321174343,43.491546327223091],[-80.231904985423284,43.491461365452132],[-80.231875430261525,43.491383710338738],[-80.2316066334933,43.490677445069473],[-80.231579539698274,43.490606256188507],[-80.231336635144444,43.489968007855772],[-80.231272748731897,43.48980013848135],[-80.231062561940448,43.489247845428103],[-80.230990053897685,43.489057315358195],[-80.230971110727737,43.489007540167044],[-80.230765102695486,43.488466210302569],[-80.230716000716441,43.488337182746427],[-80.230543247023846,43.487883225874597],[-80.230511820969937,43.487800647717961],[-80.230479916437304,43.487716809421727],[-80.230461355987117,43.48767124353094],[-80.230450342776507,43.487644206046582],[-80.230447962069519,43.487638363397963],[-80.230429382503502,43.487592748726968],[-80.23041413322953,43.487459470101143],[-80.230406542668732,43.487393127736958],[-80.230398396164432,43.487394522585362],[-80.230391209127802,43.487395753766876],[-80.230291693293225,43.487412794404008],[-80.230291180156456,43.487411425877831],[-80.230272722596226,43.487362155412903],[-80.230226210888787,43.487237997411853],[-80.230328176474828,43.487220554623356],[-80.230339151106079,43.487218677230857],[-80.230312442250138,43.487176823839327],[-80.230229524644386,43.487046882294216],[-80.230190027255219,43.486934840002597],[-80.23016022858944,43.486850307112789],[-80.230146688858184,43.486811899088124],[-80.230071766323988,43.486599362748493],[-80.229460120659027,43.484864206574819],[-80.229320470476182,43.484468020594271],[-80.229044783586374,43.483685892291447],[-80.228953579379294,43.483427137138897],[-80.228904396282601,43.483287601013558],[-80.228757641074196,43.482871239995163],[-80.228716186916927,43.482753629143993],[-80.228558766701852,43.48230700186123],[-80.228555336619152,43.482297269388852],[-80.228538755576409,43.482250224423012],[-80.228472555392244,43.482062400383676],[-80.228369369855741,43.481769640119914],[-80.228339442499788,43.481684730327721],[-80.228170274693966,43.481204754096716],[-80.228142826675295,43.481126877126663],[-80.228077933295111,43.480942754292073],[-80.228005362271531,43.480725635553263],[-80.227952392367186,43.480567159028233],[-80.227850672419933,43.480262831311833],[-80.227787345034045,43.480073366729648],[-80.227668636368151,43.479718203846275],[-80.227634112752938,43.479614912976373],[-80.227481000691938,43.479156809103664],[-80.227452049638032,43.479070189445416],[-80.227443215308284,43.479043755269181],[-80.227387581302267,43.47887730063313],[-80.227358619829474,43.47879065025802],[-80.227328232733058,43.478699731144872],[-80.227291105300068,43.478588643748083],[-80.227271703781142,43.47853059342286],[-80.227271537507121,43.47852704640443],[-80.227269784694144,43.478489458745756],[-80.227265268913968,43.478392636614402],[-80.227264227020953,43.478370278197275],[-80.227533800554312,43.47827411957126],[-80.227525290927957,43.478275576626004],[-80.227517769051246,43.478276865608663],[-80.227407274412883,43.478295793462131],[-80.227357772089732,43.478304272296462],[-80.227248993689813,43.478322906402276],[-80.227237108461281,43.478324942037368],[-80.227218614683679,43.478328109929272],[-80.227205611655506,43.478330337028716],[-80.227197763880284,43.478331681492314],[-80.227191571479651,43.47833274264147],[-80.227134542216561,43.478342511301932],[-80.227093353603308,43.478349566910587],[-80.227092902446543,43.478348188007004],[-80.227085590423428,43.478325830414526],[-80.227085542900468,43.478325684246244],[-80.227075416243096,43.478294719410243],[-80.227073591410374,43.478289754707035],[-80.22705705791337,43.478244773597893],[-80.227049444353156,43.478246257419336],[-80.22685389736894,43.478279727020464],[-80.226740862434539,43.478299073688007],[-80.22668814309398,43.478308096924543],[-80.226349290598904,43.478366092965302],[-80.225692883117674,43.478478431698207],[-80.225639018367573,43.478487650245548],[-80.224757210151324,43.478638557563379],[-80.224745883827381,43.478640495904038],[-80.224669162676889,43.478653625253848],[-80.224597505055129,43.478665887628388],[-80.22425760763916,43.478724054904902],[-80.223861227215167,43.478791883922447],[-80.223698317862741,43.478819760960654],[-80.222910807912044,43.478954515640829],[-80.222716648206259,43.478987738196707],[-80.222273247848605,43.479063606968502],[-80.221962288391865,43.479116812942706],[-80.221815632441718,43.479141906587543],[-80.221372066419107,43.479217800536446],[-80.221260855920505,43.479236828267467],[-80.220717691778177,43.479329759898448],[-80.220518200853377,43.479363891383848],[-80.219805400133311,43.479485840838798],[-80.219617173011287,43.47951804334356],[-80.219036666501978,43.479617354488184],[-80.218761389631197,43.479664447400253],[-80.218152419476354,43.47976862281277],[-80.217991181757483,43.479796205104968],[-80.21745909183754,43.479887225052998],[-80.217151129321152,43.479939904420313],[-80.217017036943076,43.479962842204081],[-80.2167371628925,43.480010715499155],[-80.216390750781102,43.480069969914375],[-80.21614142271838,43.480112616972896],[-80.215700209674665,43.4801880845122],[-80.215170041414169,43.480278764734088],[-80.21504301136703,43.480300491673923],[-80.214968352038838,43.480313260420267],[-80.214525963911669,43.480388923345501],[-80.214053088120195,43.480469798238644],[-80.214036802625088,43.480472583848332],[-80.214033560593762,43.480473137884864],[-80.213446589485216,43.480573523385154],[-80.213198925342752,43.480615878245828],[-80.213065364171669,43.480638719655602],[-80.213019667697949,43.480646534255932],[-80.212377396869144,43.480756372593035],[-80.212145163102406,43.480796086999064],[-80.212079154169203,43.480807374640143],[-80.211550932055545,43.480897703069317],[-80.211355251898809,43.48093116405601],[-80.210884941870972,43.481011586147879],[-80.210407945814083,43.481093148648398],[-80.2100192113502,43.481159618254388],[-80.209715415162293,43.481211562626328],[-80.20909369057415,43.481317866100447],[-80.208832041028643,43.481362601758029],[-80.20817418691874,43.481475075642457],[-80.20796636878012,43.481510606113616],[-80.207532684685816,43.481584750737497],[-80.207162588566945,43.481648022639824],[-80.207082985993367,43.481661631655761],[-80.206552103390578,43.481752388484679],[-80.206152841126951,43.481820642970774],[-80.205932024880084,43.481858391757292],[-80.205682502754314,43.481901046158129],[-80.205280345880539,43.481969791572659],[-80.205090336383932,43.482002270999303],[-80.205006463410129,43.482016608913661],[-80.204934956591927,43.482028832913173],[-80.204901049616339,43.482033649416699],[-80.204708803910691,43.482060958646159],[-80.204668759449788,43.482066647240849],[-80.204535709750417,43.482085546449746],[-80.204409533273605,43.482103470407353],[-80.204347618807361,43.482112264443742],[-80.204205979678122,43.482132383960582],[-80.204107991820663,43.48214448346539],[-80.204096129859238,43.482145947870066],[-80.204015557195277,43.482152914497789],[-80.20398548789187,43.482155513668204],[-80.203863696573833,43.482161338706014],[-80.203861797318652,43.482161429114505],[-80.203737847038042,43.482162346954404],[-80.203734942412069,43.482162251176057],[-80.203710363766277,43.48216144063597],[-80.203614016938317,43.482158263763644],[-80.203589710764234,43.482156476381199],[-80.203563109276359,43.482154519911596],[-80.203501381009033,43.482149980394027],[-80.203490687547486,43.482149193698184],[-80.203368237121182,43.482135162857269],[-80.203279378970819,43.48212127138752],[-80.203247042173729,43.482116216172102],[-80.203127474223749,43.482092409411109],[-80.203009900797838,43.48206381797403],[-80.202894683043482,43.482030529175134],[-80.202857263025962,43.482017928836875],[-80.202782173347217,43.481992643585414],[-80.202672718881203,43.48195027967715],[-80.202566654367061,43.481903565892146],[-80.202464328957774,43.48185265876554],[-80.202430836832249,43.481833933935043],[-80.202366033843944,43.481797704283217],[-80.202272065897446,43.481738870212347],[-80.202182717068581,43.481676338780439],[-80.202098260789754,43.481610299967279],[-80.202018955120181,43.481540958320885],[-80.201964483649689,43.481487575389075],[-80.201945044600777,43.481468524364331],[-80.201876755179555,43.481393222079021],[-80.201814296296263,43.481315281762647],[-80.201757860343093,43.481234943195794],[-80.201707620849362,43.481152451824457],[-80.201668963001424,43.481078124384723],[-80.201663728961606,43.481068061543567],[-80.201559134258133,43.480848694612504],[-80.201482755474444,43.48068850169053],[-80.201423290700205,43.480563781411391],[-80.20142215489804,43.480560730894197],[-80.201421705902547,43.480559523841698],[-80.201414688748642,43.480560908389577],[-80.201302467706682,43.480583053951484],[-80.201181725698021,43.480606881249166],[-80.201229202438668,43.480734457944337],[-80.201251708351194,43.480794932112182],[-80.201330044296995,43.48100542950263],[-80.201366110259144,43.481102344230287],[-80.201441905544954,43.481306011196729],[-80.201482672601188,43.481415555631315],[-80.201902158606316,43.482542722346324],[-80.201895133053682,43.482544076155072],[-80.201666037262157,43.482586827396602],[-80.201632928021539,43.482593005419382],[-80.201428059261303,43.482627194822847],[-80.201343678366626,43.48264127611408],[-80.201311957033695,43.482646569724039],[-80.201303266641816,43.482640160965857],[-80.201278265930725,43.482621723849952],[-80.200933321323475,43.482367339663803],[-80.20044523491967,43.482007388668968],[-80.200391460080283,43.481967731430146],[-80.199862142872618,43.481577445842923],[-80.199764918689112,43.481505923336421],[-80.199511875770952,43.481319771413347],[-80.199440468245854,43.481267239270394],[-80.19935912514471,43.481207398159448],[-80.198922156148285,43.480885936144034],[-80.198735554966945,43.480748659452033],[-80.198161979636353,43.480326688443292],[-80.197962650824678,43.480180043183573],[-80.197943797896784,43.480166173153165],[-80.19744514359094,43.479799311648591],[-80.197339159455083,43.479721337931899],[-80.197159682777496,43.479589293292037],[-80.196521503696886,43.479119768905385],[-80.196386246136896,43.479020254709646],[-80.196348883244326,43.47899276492479],[-80.196132993704225,43.478833926274923],[-80.195797099986123,43.478588678985759],[-80.195683715368745,43.478505892892223],[-80.195558624844239,43.478414559406659],[-80.19486532791457,43.477908347007727],[-80.194653156559383,43.477753426923513],[-80.194045144179768,43.477309472377904],[-80.193834789405415,43.477155874649974],[-80.193242276027533,43.476723223769618],[-80.193046748726815,43.476580447775582],[-80.192843402267329,43.476431962546513],[-80.192397283000361,43.47610334155673],[-80.192257321364394,43.476000241503442],[-80.191595085178207,43.475512412663768],[-80.191393935257963,43.475364234776649],[-80.190722214144571,43.474869404124533],[-80.190573670350602,43.474759975171153],[-80.189901108158026,43.474264508731778],[-80.189705095234771,43.474120107349599],[-80.189677201988971,43.474099558121537],[-80.18948080323996,43.473954870891369],[-80.189377587980758,43.473878831823441],[-80.189351247345328,43.473859426328445],[-80.189299755014403,43.473821491675906],[-80.189258062388888,43.473790775982181],[-80.189146287219373,43.473708430583173],[-80.189146198506776,43.473708497442324],[-80.189125030632297,43.473692643854484],[-80.189123437908847,43.473691456633262],[-80.189054450736151,43.473640207425284],[-80.188953589531266,43.4735652805131],[-80.188946628488779,43.473560109458134],[-80.188840947629132,43.473481601366053],[-80.188832441745674,43.473475283096178],[-80.188738510380034,43.473544676369322],[-80.188722121925352,43.473556782529243],[-80.188715030212435,43.47356202220319],[-80.188701177963225,43.473572255506589],[-80.188663107551719,43.473600380352643],[-80.18866935532678,43.473604984444798],[-80.188836355547792,43.473819182140716],[-80.188862863023743,43.473853181255194],[-80.18874104656112,43.473987265337165],[-80.188732894817846,43.473996237879419],[-80.188671791826408,43.474063493223419],[-80.188630008191666,43.474094759488153],[-80.187917733849034,43.474627740906456],[-80.187714304060336,43.474779959550403],[-80.187471605186133,43.47496156253019],[-80.186644183774831,43.475580677490065],[-80.186039166970033,43.476033368750954],[-80.185491528223579,43.47644311697762],[-80.1850884304489,43.476744713992602],[-80.184554588140628,43.477144128209822],[-80.184488507690304,43.477193567663576],[-80.184011590869773,43.477550382550142],[-80.183296740892985,43.47808519928838],[-80.183008532459596,43.478300818902056],[-80.182392115633078,43.478761977611121],[-80.181986523790812,43.479065406027239],[-80.181504205005083,43.479426229020326],[-80.181125365931862,43.479709633907781],[-80.180340778894958,43.4802965615403],[-80.180044760880193,43.480518000210708],[-80.18003142055187,43.480528006388447],[-80.179298971453164,43.481077371049089],[-80.178995017582338,43.481305342916095],[-80.178917638059019,43.481363379033645],[-80.178462676948271,43.481704603931824],[-80.177945243277108,43.482092675630213],[-80.177849948300761,43.482164145331787],[-80.177445560448547,43.482467422859692],[-80.177105397873859,43.482722530957524],[-80.176986362739726,43.482811802472746],[-80.176580487062822,43.483116191837873],[-80.176467358528683,43.483201031105764],[-80.175997089341152,43.483553700095932],[-80.175666594441921,43.483801544860242],[-80.175119180143213,43.484212055752053],[-80.174749051723666,43.484489612304124],[-80.17473502121608,43.484500134299012],[-80.174284677109682,43.484837841559241],[-80.174089525512429,43.484984180560197],[-80.173926875051663,43.485106146159922],[-80.173669559929863,43.485299095248763],[-80.173382179723916,43.485514588183868],[-80.173144600921574,43.485692736169717],[-80.173074597958276,43.485745226362624],[-80.172572176140406,43.486121955480407],[-80.172115464570382,43.48646440364157],[-80.17174515997506,43.486742058130154],[-80.171412173815995,43.486991729076003],[-80.171404188979295,43.486991523552561],[-80.171403994010547,43.486991669798144],[-80.171254346130908,43.486987823642657],[-80.171246374843051,43.486987619112298],[-80.171135427480962,43.486984767321154],[-80.170975684134021,43.487104382589472],[-80.170872904908961,43.487181343277506],[-80.17087379668051,43.487270656756081],[-80.170874856087195,43.487376830240791],[-80.170855006528214,43.487391715304078],[-80.170267837086755,43.487832009234708],[-80.169831702457699,43.488159041700158],[-80.169364065837925,43.48850968965116],[-80.169280393804286,43.488572429495555],[-80.168791380857513,43.488939099592116],[-80.168726784732328,43.488987534805872],[-80.168368725703246,43.489256008151763],[-80.167907746263751,43.489601646122708],[-80.167630805162204,43.48980929204658],[-80.167387546625363,43.489991680611212],[-80.167071009140699,43.490229011101469],[-80.16696178510503,43.490310902434146],[-80.166275572740929,43.490825389205156],[-80.165942157608825,43.491075361468134],[-80.165852114071598,43.491142869577239],[-80.165683722999532,43.4912691161352],[-80.165517935559762,43.49139341133764],[-80.16525370602065,43.491591506819724],[-80.165130213398484,43.491684090198838],[-80.165121401885273,43.491690696210746],[-80.164844559253112,43.491898245878367],[-80.164711490108871,43.491998008148272],[-80.164279167146077,43.492322115204523],[-80.164257513557416,43.492338349178489],[-80.164243980554787,43.492348494394584],[-80.16378342768013,43.492693759448485],[-80.163592510534002,43.492836884064872],[-80.163120252765921,43.493190915573955],[-80.163051499602787,43.493242456072473],[-80.163043963669438,43.493248105954585],[-80.162883056984029,43.493368729506422],[-80.162831816183015,43.493407141089271],[-80.162684534598696,43.493517549779952],[-80.162678884457051,43.493521785419993],[-80.162617935360814,43.493567475114986],[-80.162376045047054,43.493748804011197],[-80.161777055658249,43.494197820128207],[-80.161621681555687,43.494314290939101],[-80.161334835273081,43.494529312402818],[-80.160518316626437,43.495141367988069],[-80.160486631236921,43.495165118212419],[-80.160252769570803,43.49534041554007],[-80.159830007493468,43.495657303913681],[-80.15964527850403,43.495795769887359],[-80.15900821393943,43.496273278914522],[-80.158888605563121,43.496362929689056],[-80.158826913248632,43.496409170976527],[-80.158231384714171,43.496855533886993],[-80.158218352167879,43.496865302139248],[-80.157421804015172,43.497462319200913],[-80.157246792071945,43.497593490055984],[-80.156649304058519,43.498041296063505],[-80.156437191659478,43.498200267161707],[-80.156070743991634,43.498474909255044],[-80.155929937599623,43.498580434288051],[-80.155691789674378,43.498758913088309],[-80.155205963393485,43.499123009462373],[-80.154995479759279,43.49928075100518],[-80.154888468064271,43.499360948748581],[-80.15451798522119,43.499638593109076],[-80.154394853420669,43.499730868373526],[-80.15419485065506,43.499880751351178],[-80.153994238033548,43.500031094992394],[-80.153909317839819,43.500094733484829],[-80.153839372907044,43.500147149121588],[-80.153816881191474,43.500164005198549],[-80.153740079549308,43.500221559258947],[-80.153504560064476,43.500398053985926],[-80.153458568789432,43.500432520292442],[-80.15340535287234,43.500471911518709],[-80.153330423947835,43.500527373000644],[-80.15336670706624,43.500554304199454],[-80.153371798775595,43.500558083178255],[-80.153504685345212,43.500656718106086],[-80.153688221138438,43.500792946059434],[-80.153760395144616,43.500846516157175],[-80.154118767848473,43.50111251262512],[-80.15450581396766,43.50139978718412],[-80.154787290351237,43.501608702134895],[-80.155235013426591,43.501941004604419],[-80.156233307238907,43.502681923253022],[-80.156365350990697,43.502779922827287],[-80.157012567327612,43.503260258452215],[-80.157025337388035,43.503269735955833],[-80.157137907816619,43.503353278823887],[-80.157870144157172,43.503896696078201],[-80.158735085407372,43.50453858568639],[-80.158894958416639,43.504657228560504],[-80.158937434715227,43.504688750587583],[-80.159434235637818,43.505057424316355],[-80.159563016726651,43.505152990350467],[-80.159697353624921,43.505252680403117],[-80.159693225542142,43.505255628678512],[-80.160534029640345,43.505879560008509],[-80.16053822592248,43.505882673880656],[-80.16054221197308,43.505879620084613],[-80.160545951477914,43.505882394703498],[-80.16075182643813,43.506035165631936],[-80.160775736788835,43.506052907545389],[-80.160782438266381,43.506057880267392],[-80.161246566570412,43.506402283818709],[-80.162343225036082,43.507216026587145],[-80.162923052985704,43.507646258259655],[-80.164035089281214,43.508471363364308],[-80.164380496981934,43.508727640264873],[-80.16452826255447,43.508837275232992],[-80.165811587518405,43.509789414445898],[-80.166136777994964,43.510030676131286],[-80.167408080771565,43.510973841328173],[-80.167490471879276,43.511034964969738],[-80.167803733841737,43.511267362236687],[-80.169255801499332,43.512344567158046],[-80.169538866565148,43.512554549327277],[-80.170730954009585,43.513438838062392],[-80.170993003330992,43.513633220068698],[-80.171168096829575,43.51376184535107],[-80.171314277533327,43.513868207617023],[-80.172467176233198,43.514707050531491],[-80.173133272731675,43.515191682584366],[-80.174666865701298,43.516307436162826],[-80.174725741455603,43.516350270177846],[-80.17478366540422,43.516392411182181],[-80.176666886685226,43.517762443207644],[-80.176774809489089,43.517840953780698],[-80.178147503801398,43.518839517432781],[-80.178306285991184,43.518955020382847],[-80.178881819684747,43.519373676346959],[-80.180170305880409,43.52031091679266],[-80.180234725262594,43.520357774726499],[-80.181855454954885,43.521536623527069],[-80.182146531725451,43.521748332417374],[-80.182279054069227,43.521844719586809],[-80.184153128679725,43.523207734910322],[-80.18417056979618,43.523220420224476],[-80.184303632908254,43.52331719252431],[-80.184793004362092,43.523673096232052],[-80.18501490549815,43.523834475143268],[-80.18517517581148,43.523951031708414],[-80.185196531425561,43.523966563119949],[-80.185197989592979,43.524161519267096],[-80.18537174100652,43.52435371875665],[-80.185373993060111,43.524356209199262],[-80.185374179930591,43.524356208718991],[-80.185375142675753,43.524356205704656],[-80.185455915866598,43.524355965365416],[-80.185630449437568,43.524355451106359],[-80.185630561003592,43.524355532886197],[-80.185638634318877,43.524355509406178],[-80.185662962450593,43.524373346246293],[-80.185713538928738,43.524410427456189],[-80.186105756517492,43.52469799293943],[-80.18637875742445,43.524898149442308],[-80.187631669397845,43.525816720193198],[-80.188011555474347,43.526095224211403],[-80.188138987158155,43.526188646569068],[-80.188956349726269,43.526787860412611],[-80.189131732666638,43.526916432918568],[-80.189772039834679,43.527385826514788],[-80.190197865730212,43.527697984112642],[-80.191623398624984,43.528742953079266],[-80.191840910809418,43.528902393142182],[-80.191956030385398,43.528986777586688],[-80.192408744071727,43.529318618200804],[-80.192593517268762,43.52945405624255],[-80.192925801379673,43.529697617003528],[-80.193365361790455,43.53001980560753],[-80.193391824490021,43.530039201903811],[-80.19351929239572,43.530132631966616],[-80.193917891250891,43.530424786835844],[-80.194316485113774,43.530716940358964],[-80.194330968167833,43.530727555718187],[-80.194484705087561,43.530840236182854],[-80.19471508424364,43.531009088803621],[-80.194904643942721,43.531148026106898],[-80.19495108659298,43.531182065769961],[-80.194976714413286,43.531200849878651],[-80.194980816650116,43.531203856369892],[-80.195003505232265,43.531187473601889],[-80.195007588820275,43.531184524657171],[-80.195394967440421,43.531468443919714],[-80.195849481116412,43.53180156201276],[-80.196071744050101,43.531964459728371],[-80.196045617751608,43.531984265381304],[-80.196051868603845,43.531988847490865],[-80.196593216497362,43.532385596329391],[-80.19668649174686,43.532453956182977],[-80.19674275658997,43.532495191809026],[-80.197342922475755,43.53293503930859],[-80.197707715126938,43.533202382745692],[-80.198396676966269,43.533707288946211],[-80.198459348531316,43.533753216675464],[-80.199426047358742,43.534461640525329],[-80.199521176197138,43.534531351718201],[-80.199585908756788,43.534578788851235],[-80.199639076363667,43.534617747634357],[-80.200501092993747,43.535249430401016],[-80.200543646455372,43.535280613255551],[-80.201529598955034,43.536003089658273],[-80.20161045296777,43.536062336487539],[-80.202539295181637,43.536742939941618],[-80.202657595005803,43.536829621852377],[-80.202698624390905,43.536859684842888],[-80.202712564896515,43.53686990011537],[-80.202979665362591,43.537065610272094],[-80.203021304290516,43.537096121272803],[-80.203244198070394,43.537259439792827],[-80.20324017564036,43.537262433570902],[-80.203152373972543,43.53732779083353],[-80.203143932968146,43.53733407365408],[-80.203108149324208,43.537360709910807],[-80.203041851488067,43.537410059914933],[-80.202690425557222,43.537671647835673],[-80.202612683548551,43.537729514962223],[-80.202254208964419,43.537996345920902],[-80.202221853132855,43.538020429693944],[-80.201708177877634,43.538402777492813],[-80.201530123898706,43.538535307566931],[-80.201477809876067,43.538574246464215],[-80.201232720415348,43.538756672001483],[-80.2004302698207,43.539353940385446],[-80.199597129280292,43.539974034415749],[-80.199085728513069,43.540354651997667],[-80.198583948353374,43.540728103394741],[-80.198492077504397,43.540796477400818],[-80.198456252163879,43.54082313979081],[-80.198432620284152,43.540840727661788],[-80.197604564281903,43.541456991584013],[-80.197542940504036,43.541502853207263],[-80.197173409941072,43.541777862574662],[-80.197110639234438,43.541824576758067],[-80.196751538458699,43.54209181802883],[-80.196499579583872,43.542279322764934],[-80.195988798767843,43.542659435427474],[-80.195778091103975,43.542816238044182],[-80.195756309209415,43.542832447220732],[-80.195726799919981,43.542854406225011],[-80.195552722782182,43.54298394925091],[-80.194728885051433,43.543597009982122],[-80.194707082591833,43.543613234120471],[-80.194533022356453,43.543742758661857],[-80.19436515113351,43.543867675892841],[-80.193891064300161,43.544220454196953],[-80.193698823229667,43.544363503189601],[-80.193453860576852,43.544545780286192],[-80.193223447020003,43.544717232083727],[-80.192763081061017,43.545059784595821],[-80.192544717599674,43.545222265451649],[-80.191916376423492,43.545689794628906],[-80.191747036624648,43.545815793417084],[-80.191739394763346,43.545821479535569],[-80.191260897309974,43.546177505731286],[-80.191148597133761,43.546261062470599],[-80.191022294090786,43.546355036907677],[-80.190986092086632,43.546381972453617],[-80.19096273348616,43.546399351800005],[-80.190797016904483,43.546522649216854],[-80.190624630439871,43.546650909001031],[-80.190578745416346,43.546685048561109],[-80.190400890091539,43.546817377047731],[-80.190326129358837,43.546873000386228],[-80.190269072132409,43.546915451690765],[-80.185802947224801,43.55023804915502],[-80.185606662611804,43.55038406115137],[-80.185877294437432,43.550582476857286],[-80.186249389565361,43.55085527102743],[-80.186204641035786,43.550888710041185],[-80.186614926242427,43.551189498648974],[-80.186638481963385,43.551206767891699],[-80.186717710570278,43.551264852848718],[-80.18678553735873,43.551314577355591],[-80.186838309969431,43.551353267323947],[-80.186900106707199,43.551398570982101],[-80.186904208634402,43.551401578747765],[-80.186945661260211,43.551371667307194],[-80.186949747859401,43.551368718683364],[-80.187229967738844,43.551574152354689],[-80.187606337602347,43.551850070718388],[-80.187711691388458,43.551927306194756],[-80.187907136828755,43.552070586932011],[-80.187990983527115,43.552132054255154],[-80.188140262522481,43.552241489570939],[-80.188153123832038,43.552250917344232],[-80.188149072872051,43.552253892352766],[-80.188089886946187,43.552297360191432],[-80.188004050076216,43.552360401994839],[-80.187400183190164,43.552803896947005],[-80.187713817904694,43.553029155513713],[-80.187714438292176,43.553029601080333],[-80.187712672738243,43.553030901413607],[-80.188120385383669,43.553329353106889],[-80.188228188511758,43.55340826485677],[-80.188613073284543,43.553690001262147],[-80.188662174243646,43.553725501109355],[-80.188711444559686,43.553761202877915],[-80.188742884659177,43.553783984138214],[-80.188747066071926,43.55378699058901],[-80.188707541553455,43.553816071809678],[-80.188694780106573,43.55382546172266],[-80.188621919066023,43.553879071464856],[-80.188884366001403,43.554066466452639],[-80.188946203372637,43.554110619544971],[-80.189007114310471,43.554066009164075],[-80.189017354627907,43.554073450785985],[-80.189268446294037,43.554255908420785],[-80.189593275526988,43.554491945291673],[-80.190229026022962,43.554953909590949],[-80.191204070720929,43.555662399358425],[-80.191920637536953,43.556183056809388],[-80.19213714104589,43.556055427552167],[-80.192149192112979,43.556048319287946],[-80.192776480370128,43.556514709796289],[-80.19286530380387,43.556580749497883],[-80.19348653464121,43.557042626285991],[-80.193514015551173,43.557063057093309],[-80.193540655320803,43.557082862345723],[-80.193624299510219,43.557145048941919],[-80.193774679982297,43.557256850904174],[-80.193801193870172,43.557276562446575],[-80.193896341756229,43.557347301111633],[-80.193783149998708,43.557409040459802],[-80.1936232123373,43.557496275784153],[-80.193729903863158,43.557574214600336],[-80.193878974703651,43.557683110573812],[-80.194571323955927,43.558188862205455],[-80.195936060988174,43.559185747381719],[-80.195939527412563,43.55918828301234],[-80.195945560451875,43.559192601508549],[-80.195945614503827,43.559192639663458],[-80.19594216837163,43.559195181663526],[-80.195941765630934,43.559195483112489],[-80.195726156331119,43.559354779040078],[-80.195603120181815,43.559445679416285],[-80.195211322434886,43.559735142109773],[-80.195176648463004,43.55976075895088],[-80.195187266820724,43.559768302592801],[-80.195647406499816,43.560095196366781],[-80.19572650840567,43.560151391447441],[-80.19628302608271,43.560546746625079],[-80.196467590824085,43.560677862362866],[-80.196558003397897,43.560742090615136],[-80.196731366776433,43.560865246776558],[-80.196815789146228,43.560925219628515],[-80.19674546229048,43.56097772855555],[-80.19671385225935,43.561001329632639],[-80.196589847071451,43.561093916035745],[-80.196547738240326,43.561125355236044],[-80.196328005184867,43.561289412589787],[-80.19613239133524,43.56143546149314],[-80.195919558195982,43.561594365793127],[-80.195715734534417,43.561746541141829],[-80.195503938482716,43.561904668558448],[-80.195340348251406,43.562026804014799],[-80.195076434669602,43.562223839003053],[-80.194947266775557,43.562320273428604],[-80.194942819470072,43.562323593463326],[-80.194936179700861,43.562328551269161],[-80.194888149842896,43.562364408833332],[-80.194983586656974,43.562424655080413],[-80.195329247093255,43.562668174898192],[-80.195468898143559,43.562766559286935],[-80.196379430569991,43.563408016578649],[-80.197241502848328,43.564015316563854],[-80.197294882226998,43.564052919124087],[-80.198711067144487,43.565050528472028],[-80.198948209713166,43.565217575095822],[-80.200267285668772,43.566146724774285],[-80.20046768732216,43.566287882557454],[-80.201566277362318,43.567061684956961],[-80.201757608554729,43.567196447268842],[-80.201981752862167,43.567354320537206],[-80.202264719212053,43.567553622260441],[-80.202283510646993,43.56756685803262],[-80.202307819512555,43.567583978796563],[-80.202345898177455,43.567610796835048],[-80.202370125498121,43.567634949360631],[-80.202469281354013,43.567733794459812],[-80.202545132772372,43.567787746059885],[-80.202579007432917,43.567811840643643],[-80.202769203548471,43.567947103878275],[-80.202809856713017,43.567976014242227],[-80.202838710320322,43.567996534238034],[-80.203090812816114,43.568166384877003],[-80.203217972939527,43.56824665177038],[-80.203347196674116,43.568328219596388],[-80.203636547232236,43.568510862438572],[-80.203832877158902,43.568634788011522],[-80.204046431139858,43.568798839551377],[-80.204921967292819,43.569471409975641],[-80.205310840893816,43.569748208180023],[-80.205364681420662,43.56978653221509],[-80.205458181265186,43.569853083407324],[-80.205888194051909,43.570159158833214],[-80.206042115067959,43.570268715242939],[-80.206510213506917,43.570601893299873],[-80.206625177173834,43.57068371859021],[-80.207084511891679,43.571010651183492],[-80.207128131904398,43.571041697498735],[-80.207191063888757,43.571086783696536],[-80.207230886627556,43.571115314858261],[-80.207490929853137,43.571301617223419],[-80.207573315490876,43.571360640586157],[-80.20764095800719,43.571409100568019],[-80.207677709107443,43.571435430404016],[-80.207778224894398,43.571507442496511],[-80.207794998789794,43.571519460473091],[-80.207891187491683,43.571588371136947],[-80.208004151761941,43.571669299676422],[-80.208072771032107,43.571718594583146],[-80.208116911140081,43.571750379775729],[-80.208229354436924,43.571831691649948],[-80.208365992941808,43.571930498478878],[-80.208402335420942,43.571956778417174],[-80.208457912647646,43.571996968768943],[-80.208541688037954,43.572057548815408],[-80.208678327427762,43.572156356179931],[-80.208789576147566,43.572236802098118],[-80.208817669994957,43.572257117201296],[-80.208839886190802,43.572273562973415],[-80.208899862321147,43.572317961501554],[-80.209009824813549,43.572399361692938],[-80.209119786368191,43.572480760865297],[-80.20922974834356,43.572562159933831],[-80.209309211027431,43.572620520644165],[-80.20934014314301,43.572643239490958],[-80.209383667858106,43.572673986249015],[-80.2094526779875,43.572722738325588],[-80.209565211758942,43.572802236950579],[-80.209677745939317,43.572881736372644],[-80.209790281548905,43.57296123478703],[-80.209797264906953,43.572966167855249],[-80.209902816333482,43.573040733084071],[-80.20994355971149,43.573069515508081],[-80.210015351288433,43.573120231361209],[-80.210153569996095,43.573217872860688],[-80.210206254573791,43.573255090783057],[-80.210244318299431,43.573281979894453],[-80.210331303303178,43.573343427142753],[-80.210449308676942,43.573426788524479],[-80.210453526254568,43.573429768333718],[-80.210538836642655,43.573490032480557],[-80.210624147190288,43.573550297379597],[-80.210709456674138,43.573610561301251],[-80.210794766451585,43.573670825251376],[-80.210810171761267,43.573681706888316],[-80.210877406065748,43.573729201358788],[-80.210890694611649,43.573738589001884],[-80.211045547458667,43.573847977557435],[-80.211163624683223,43.573931387336891],[-80.21123980905594,43.573985204068137],[-80.211415621550216,43.574109397279912],[-80.211487783750584,43.574160372204986],[-80.21150633292585,43.574173406664933],[-80.21170823802575,43.574315279015003],[-80.211907515370783,43.574455304941885],[-80.212257490742459,43.574701217774276],[-80.212335867550749,43.574756289642423],[-80.212784900580743,43.575071800935959],[-80.212859756196764,43.575124397191132],[-80.212947152072289,43.575185804770001],[-80.213106510695113,43.575303726897673],[-80.213226682955394,43.57539265951938],[-80.213306801200275,43.575451950271933],[-80.213362732329131,43.575493340837966],[-80.213559078850892,43.575638658870147],[-80.213644133787781,43.575701612066069],[-80.213664982340418,43.575717042697796],[-80.213733725155052,43.575767927904778],[-80.213770879942061,43.575795430824691],[-80.21387678144329,43.57587381797358],[-80.213982679375505,43.57595221315178],[-80.214088561663729,43.576030596347174],[-80.214178911793766,43.576097488833234],[-80.214194457560581,43.576108998469834],[-80.21421173430295,43.576121789665038],[-80.214300358781429,43.576187405059414],[-80.21430866709855,43.576193557103323],[-80.214406253911235,43.576265812414064],[-80.214444280094838,43.576293970335954],[-80.214512149335633,43.576344227733976],[-80.21451267680844,43.57634461761976],[-80.21460976590096,43.576416512786331],[-80.214618048600826,43.576422646604769],[-80.214623951402388,43.576427019101942],[-80.214716764594115,43.576495750412207],[-80.21472394313372,43.576501067155874],[-80.214820108946128,43.576572290441042],[-80.21482335358543,43.576574694249388],[-80.214860777833508,43.576602411269583],[-80.214908091000879,43.576637027511154],[-80.214909898210664,43.576638350892289],[-80.214961046575894,43.576675773101563],[-80.215035788576373,43.576730458786137],[-80.215122629881492,43.576793995826968],[-80.215137707820517,43.576805030346875],[-80.21517550949136,43.57683269215056],[-80.215244328456123,43.576883051108346],[-80.215276619287735,43.576906678999507],[-80.215354522135073,43.576963685803655],[-80.21538141587537,43.576983278851039],[-80.215391233560823,43.576990430652934],[-80.215486393931215,43.57705976100128],[-80.21550726489734,43.577074967245871],[-80.215591373303553,43.577136248498533],[-80.215696350380497,43.577212741227427],[-80.215801322852442,43.577289234733371],[-80.215906300444502,43.577365738141772],[-80.216011278167258,43.577442242269107],[-80.216116254940488,43.577518753539664],[-80.216187979726783,43.577571031723267],[-80.216221231796226,43.577595269242899],[-80.21632620891441,43.577671794724637],[-80.216347113261577,43.577687034379331],[-80.216431179920818,43.577748321879007],[-80.216536156173348,43.577824858846057],[-80.216641128930618,43.57790139750368],[-80.216746104180174,43.577977946951549],[-80.216851074802577,43.578054498897536],[-80.216931892061893,43.57811344067138],[-80.216956050557272,43.578131059840111],[-80.217004695010459,43.578166541546651],[-80.217061020302552,43.578207624177203],[-80.217192745251097,43.578303880908983],[-80.217211286519287,43.578317429457272],[-80.217297632728275,43.578380147339409],[-80.217365114064421,43.578429161510122],[-80.217382397576557,43.578441715384251],[-80.217409538784921,43.578461428494229],[-80.217532269757555,43.578550573900202],[-80.217637843873462,43.578627257156519],[-80.217653844057338,43.578638878404107],[-80.217743418132756,43.578703940315464],[-80.217848992785818,43.57878062328821],[-80.217913435542542,43.578827430940663],[-80.217954567581089,43.578857306254186],[-80.218060144003204,43.57893399003882],[-80.218108462783789,43.578969086315574],[-80.218137932275695,43.578990489941063],[-80.21816571933563,43.579010672721232],[-80.218271295059509,43.579087355398606],[-80.218376871051376,43.579164037979417],[-80.218482447187839,43.579240720372361],[-80.218543478631375,43.579285048089673],[-80.218553815176648,43.579292556180505],[-80.218588023715697,43.579317402760211],[-80.21869360038697,43.57939408505073],[-80.218799177452013,43.579470767154994],[-80.218904782202216,43.579547429602236],[-80.218955914721832,43.579584549152877],[-80.218990331029389,43.579609533091791],[-80.219010387219257,43.579624092043474],[-80.219115992630066,43.57970075429845],[-80.219221614223272,43.579777419192567],[-80.219327228685344,43.579854087653629],[-80.219404463794191,43.57991015524987],[-80.219432843415504,43.579930756018122],[-80.219538458414846,43.580007424195486],[-80.219644073556537,43.580084092365972],[-80.219680866118992,43.580110800326359],[-80.219749689092012,43.580160760350175],[-80.219776181742589,43.580179992162584],[-80.219855304894409,43.580237428328402],[-80.219960920964823,43.580314096210017],[-80.220009390705158,43.580349280937895],[-80.220066528663352,43.580390757595097],[-80.220093568778609,43.580410386485987],[-80.220172136629898,43.580467418883593],[-80.220267374754599,43.580536552074491],[-80.220314939336674,43.580571078727317],[-80.220330838779788,43.580582619646719],[-80.220374723252377,43.580614383014378],[-80.220558818971185,43.580735016904214],[-80.220602003014434,43.580767232780225],[-80.220604596471119,43.580769167455372],[-80.220643761581329,43.580798385399618],[-80.220747565083158,43.580875824400032],[-80.220769555294368,43.580892229515342],[-80.220853904557003,43.580955155279064],[-80.220884056814768,43.580976580870725],[-80.220962847809744,43.581032570592733],[-80.221045819339352,43.581091519674992],[-80.221071801265666,43.581109979620805],[-80.22117273659039,43.581181704505589],[-80.221183461245886,43.581189324791666],[-80.221187689413725,43.581192329456883],[-80.221191516247004,43.581189483206884],[-80.22119548060148,43.581186534353066],[-80.221218833610834,43.581203126849033],[-80.221223838726274,43.581206682499392],[-80.221244374946835,43.581221273132464],[-80.221236583759179,43.581227068239585],[-80.221289705449806,43.581264793630297],[-80.221364757508283,43.581318114921686],[-80.221398657274889,43.581342200521469],[-80.221456732597716,43.581383462193109],[-80.22150760824735,43.581419608117486],[-80.22161656061931,43.581497015708905],[-80.221725503346633,43.581574429380481],[-80.221756116591934,43.581596179279884],[-80.221834455155729,43.581651836758752],[-80.221943408378337,43.581729243045487],[-80.222052360621376,43.581806650217359],[-80.222161318298959,43.581884053698033],[-80.222204392238808,43.581914652783546],[-80.22224350798119,43.581942440926099],[-80.222270276132392,43.581961456984516],[-80.222378332743062,43.582039523108719],[-80.222486241937204,43.582117698008865],[-80.222594151535247,43.582195872809066],[-80.222652135826976,43.582237885933473],[-80.222702052610046,43.582274053699045],[-80.222809962766661,43.582352228297601],[-80.22295501404956,43.582457314612149],[-80.223080353412655,43.582548119601739],[-80.223112926825479,43.582571718374453],[-80.223171308210524,43.582614014025566],[-80.223239476595978,43.582663400229613],[-80.223426170396053,43.582800615588539],[-80.223431755888441,43.582804720686887],[-80.223435856672978,43.582807735273363],[-80.223453978800464,43.582820767595663],[-80.223510087179065,43.582861281918696],[-80.223551376651685,43.582891095849568],[-80.223747954935078,43.58303303840119],[-80.223832411983693,43.583094021409615],[-80.223897057621969,43.583140700126286],[-80.22395880345961,43.583185283601686],[-80.224078999987753,43.583272072745054],[-80.224184451374214,43.583348214157844],[-80.224252079861103,43.583397045050894],[-80.224289903025351,43.583424355564958],[-80.224331973158527,43.583454194347077],[-80.224396286401472,43.58349981066079],[-80.224527807954246,43.583592686400202],[-80.224669730608667,43.583692907808107],[-80.224744742311913,43.583745877286788],[-80.224768125602935,43.58376238908798],[-80.225055381890471,43.583965236764193],[-80.225059582519819,43.583968203323749],[-80.225358336928736,43.583750371573458],[-80.225578524300118,43.583589823268603],[-80.225696029554555,43.583504145434802],[-80.2257748643013,43.583446663005425],[-80.225853698772269,43.583389180609736],[-80.225932533218938,43.583331698068235],[-80.22601136738983,43.583274215560408],[-80.226090201535285,43.583216732997343],[-80.226169035407253,43.583159250286812],[-80.226247869252646,43.583101767611645],[-80.226280668812763,43.583077851357139],[-80.226326702823386,43.583044284879541],[-80.226405536369867,43.582986802001642],[-80.22648436976516,43.582929319158275],[-80.226563202885799,43.582871836258001],[-80.226642035982152,43.582814353211923],[-80.226720868802744,43.582756870199503],[-80.226799701597898,43.582699387131861],[-80.226878534119578,43.582641903916787],[-80.226957366614656,43.582584420737021],[-80.227036198836288,43.582526937409774],[-80.227115031031317,43.582469454117906],[-80.227193435410314,43.582412282123862],[-80.22720278507181,43.58240546527481],[-80.227230380118414,43.582385342929605],[-80.227233003255918,43.582383430260663],[-80.227387780975647,43.582270567822171],[-80.227414395769088,43.582251160963565],[-80.227484975360866,43.58219969492977],[-80.227502264144036,43.582187087961877],[-80.227581620476187,43.582129221624648],[-80.227660976782076,43.582071355140904],[-80.227740332810157,43.582013488690059],[-80.227755472331182,43.582002449259768],[-80.227819688687362,43.581955622091847],[-80.227899044411402,43.581897755527386],[-80.227978400109166,43.581839888816383],[-80.228028711888896,43.581803200927112],[-80.228057755529136,43.581782022138334],[-80.228137110798244,43.581724155312891],[-80.228216466038759,43.581666288522044],[-80.228295821003798,43.581608421582999],[-80.228375175815657,43.581550554677719],[-80.228454530476668,43.581492687625044],[-80.228582197153116,43.581399591099462],[-80.228584820081579,43.581397678307077],[-80.228628541168234,43.581365796138044],[-80.229248632154281,43.581811432120126],[-80.230409481980473,43.582645664376912],[-80.231260708041759,43.583257366650322],[-80.232156953269467,43.58390139995403],[-80.232485568633365,43.584137535708059],[-80.233014061244148,43.584517291203788],[-80.233014879540193,43.584623866902788],[-80.233015549180692,43.58471101784928],[-80.23328376948416,43.584903823347922],[-80.233283861081958,43.584903823056372],[-80.233283878653978,43.584903901531625],[-80.233550872917831,43.584903121208917],[-80.233782211068629,43.584683658391626],[-80.233780950578634,43.584489186029231],[-80.233794704187488,43.584479075625502],[-80.233827710229534,43.58445491545902],[-80.234149267294256,43.584219531321274],[-80.23420092576643,43.584181716059689],[-80.234467102326462,43.583986869378101],[-80.23478312830926,43.583755528771484],[-80.234783169020204,43.583755541635526],[-80.235294822956973,43.583380990030463],[-80.235418471933627,43.583290471899907],[-80.235418520599026,43.583290437168372],[-80.235648223067599,43.58312228131048],[-80.236076781288844,43.582808548949458],[-80.236076821288265,43.582808519504326],[-80.236163596854425,43.582744993545042],[-80.23647441779292,43.582517448319344],[-80.236681223048251,43.582365386313775],[-80.237054174217121,43.582091154623875],[-80.237172060990616,43.582004146568927],[-80.237552413560394,43.581723419276607],[-80.238377391341231,43.581114514203669],[-80.238672960206401,43.580896353522689],[-80.239456016311948,43.580318366935046],[-80.239763609117702,43.580091323373068],[-80.240610796575169,43.579465973850596],[-80.240610767067636,43.579465952094971],[-80.240610808319985,43.57946592175071],[-80.240608317654235,43.57946413949113],[-80.240551728924359,43.579423633963678],[-80.24066809609316,43.579337088374963],[-80.240753548704816,43.579273571749219],[-80.240871450102333,43.579185922377114],[-80.241104113385944,43.579012967821633],[-80.241179550940956,43.57895688922406],[-80.241370996505836,43.578814572681729],[-80.241381358326748,43.578806869920292],[-80.241598359905524,43.578645553619566],[-80.241699963454153,43.578570022923053],[-80.241835664883766,43.578469143750766],[-80.241835721823321,43.578469144128384],[-80.242076568574205,43.578290098341299],[-80.242076539056455,43.578290077401249],[-80.242242522719962,43.57816668470408],[-80.24226508000055,43.578149914527906],[-80.24238433078925,43.578061263202251],[-80.242660752831796,43.577861425393607],[-80.242725134193805,43.577814880868061],[-80.242928197842531,43.57766807533806],[-80.243492085089784,43.577260406336372],[-80.24363482075465,43.57715721249],[-80.243733505886539,43.577085865598413],[-80.243876454481438,43.576982517046048],[-80.243966904029548,43.576917123915081],[-80.244095222800894,43.576824350988794],[-80.244107733677879,43.576815183721131],[-80.244111832842776,43.57681234212474],[-80.244172599840766,43.576855354158383],[-80.245616419017679,43.577877304439752],[-80.24593411970686,43.578101911586963],[-80.246093457617022,43.578214766000961],[-80.246206531263425,43.578293204737207],[-80.246554139619761,43.57854345839575],[-80.246560460567352,43.578547975126696],[-80.246642500541157,43.578606590720575],[-80.246997004464887,43.578859869759569],[-80.247367520899587,43.579124587584886],[-80.247612386046853,43.579299866617589],[-80.248071437069001,43.579628460223248],[-80.248563990707936,43.579981029625969],[-80.24910991406658,43.580371793552807],[-80.249419180706212,43.580593158030723],[-80.249432374667322,43.580602587399888],[-80.249978253527289,43.580992647252842],[-80.250382362369024,43.581281400530059],[-80.250884605217493,43.581640269514097],[-80.250905366935982,43.581655142644458],[-80.251313987268304,43.581947872192998],[-80.251861205129032,43.582339882985401],[-80.251969734443918,43.582417628940071],[-80.252517611355032,43.582810921227917],[-80.252513625891027,43.582813888151065],[-80.268462319554004,43.594259235290139]]]},"properties":{"OBJECTID":1,"ID":2308,"BOUNDARY":"CITY OF GUELPH","AREA_":88.966629999999995,"PERIMETER":51181.537450000003,"ACRES":21984.132539999999,"HECTARES":8896.6628000000001,"Shape__Area":88966627.963078767,"Shape__Length":51181.537451406381,"GlobalID":"{CF6C0401-49CE-4545-BBB8-790CDA7A4647}"}}]}